{
    "links": {
        "self": "http://www.neowsapp.com/rest/v1/neo/54016988?api_key=iIulBulltgU6a56xZRHN4H3l9WmuAYTsLGpBGhQ2"
    },
    "id": "54016988",
    "neo_reference_id": "54016988",
    "name": "(2020 JA1)",
    "designation": "2020 JA1",
    "nasa_jpl_url": "http://ssd.jpl.nasa.gov/sbdb.cgi?sstr=54016988",
    "absolute_magnitude_h": 26.855,
    "estimated_diameter": {
        "kilometers": {
            "estimated_diameter_min": 0.0113124058,
            "estimated_diameter_max": 0.0252953084
        },
        "meters": {
            "estimated_diameter_min": 11.3124058211,
            "estimated_diameter_max": 25.295308405
        },
        "miles": {
            "estimated_diameter_min": 0.0070292009,
            "estimated_diameter_max": 0.0157177711
        },
        "feet": {
            "estimated_diameter_min": 37.1141935141,
            "estimated_diameter_max": 82.9898596276
        }
    },
    "is_potentially_hazardous_asteroid": false,
    "close_approach_data": [
        {
            "close_approach_date": "2020-05-14",
            "close_approach_date_full": "2020-May-14 12:58",
            "epoch_date_close_approach": 1589461080000,
            "relative_velocity": {
                "kilometers_per_second": "6.1534908548",
                "kilometers_per_hour": "22152.5670773679",
                "miles_per_hour": "13764.7436931568"
            },
            "miss_distance": {
                "astronomical": "0.0260379829",
                "lunar": "10.1287753481",
                "kilometers": "3895226.780936423",
                "miles": "2420381.6870837174"
            },
            "orbiting_body": "Earth"
        }
    ],
    "orbital_data": {
        "orbit_id": "3",
        "orbit_determination_date": "2020-06-01 05:59:43",
        "first_observation_date": "2020-05-13",
        "last_observation_date": "2020-05-31",
        "data_arc_in_days": 18,
        "observations_used": 31,
        "orbit_uncertainty": "7",
        "minimum_orbit_intersection": ".0259798",
        "jupiter_tisserand_invariant": "3.692",
        "epoch_osculation": "2459000.5",
        "eccentricity": ".4807929399748682",
        "semi_major_axis": "1.996699088862485",
        "inclination": ".7284867091084878",
        "ascending_node_longitude": "49.15509227825149",
        "orbital_period": "1030.545939625236",
        "perihelion_distance": "1.03670026368315",
        "perihelion_argument": "182.9835618270446",
        "aphelion_distance": "2.95669791404182",
        "perihelion_time": "2458982.479598085070",
        "mean_anomaly": "6.295056280299361",
        "mean_motion": ".3493294050830148",
        "equinox": "J2000",
        "orbit_class": {
            "orbit_class_type": "AMO",
            "orbit_class_description": "Near-Earth asteroid orbits similar to that of 1221 Amor",
            "orbit_class_range": "1.017 AU < q (perihelion) < 1.3 AU"
        }
    },
    "is_sentry_object": false
}